ONEWEB-0125             
1 47271U 20100P   25325.57991226  .00000152  00000+0  38854-3 0  9990
2 47271  87.8966  31.8914 0001622 108.0919 252.0386 13.12441514237400
ONEWEB-0126             
1 47272U 20100Q   25325.21995079 -.00000383  00000+0 -11002-2 0  9995
2 47272  87.8970  31.9872 0001693  96.8845 263.2476 13.12441985237428
ONEWEB-0127             
1 47273U 20100R   25325.56694292  .00000417  00000+0  11250-2 0  9998
2 47273  87.8963  31.9286 0001809  96.7123 263.4211 13.12441895237493
ONEWEB-0128             
1 47274U 20100S   25325.58964587 -.00000155  00000+0 -46603-3 0  9990
2 47274  87.8954  31.9423 0002054  98.3228 261.8134 13.12441536237515
ONEWEB-0129             
1 47275U 20100T   25325.56855963  .00000511  00000+0  13860-2 0  9998
2 47275  87.8967  31.8973 0001934  66.2504 293.8827 13.12442410237444
ONEWEB-0130             
1 47276U 20100U   25325.59613280 -.00000332  00000+0 -95863-3 0  9993
2 47276  87.8964  31.8873 0001906  98.4340 261.7005 13.12441596237418
ONEWEB-0131             
1 47277U 20100V   25325.59289095 -.00000330  00000+0 -95212-3 0  9993
2 47277  87.8964  31.9181 0001842 101.3968 258.7367 13.12441472237455
ONEWEB-0132             
1 47278U 20100W   25325.54585573 -.00000111  00000+0 -34258-3 0  9999
2 47278  87.8966  31.9295 0001854 100.4429 259.6909 13.12441689237349
ONEWEB-0133             
1 47279U 20100X   25325.25699348  .00000483  00000+0  13058-2 0  9998
2 47279  87.8958  31.9498 0001956 101.5790 258.5558 13.12442498237462
ONEWEB-0134             
1 47280U 20100Y   25325.22630450 -.00000227  00000+0 -66551-3 0  9991
2 47280  87.8966  31.9498 0002039  95.8039 264.3322 13.12443685237437
ONEWEB-0135             
1 47281U 20100Z   25325.57829436  .00000252  00000+0  66453-3 0  9991
2 47281  87.8968  31.9201 0002213  97.0091 263.1289 13.12441821237505
ONEWEB-0136             
1 47282U 20100AA  25325.21656804 -.00000359  00000+0 -10324-2 0  9995
2 47282  87.8968  31.9613 0002136  92.2372 267.9001 13.12441783237383
ONEWEB-0137             
1 47283U 20100AB  25325.55558549  .00000353  00000+0  94499-3 0  9998
2 47283  87.8965  31.8992 0001631  98.5687 261.5626 13.12443364237332
ONEWEB-0138             
1 47284U 20100AC  25325.22954642 -.00000200  00000+0 -59158-3 0  9993
2 47284  87.8967  31.9733 0001940  96.2562 263.8787 13.12442861237377
ONEWEB-0139             
1 47285U 20100AD  25325.57357370  .00000358  00000+0  95901-3 0  9995
2 47285  87.8963  31.8944 0001795 100.4470 259.6861 13.12443247237499
ONEWEB-0140             
1 47286U 20100AE  25325.22305617 -.00000345  00000+0 -99399-3 0  9998
2 47286  87.8967  31.9506 0001900  97.6638 262.4706 13.12442626237412
ONEWEB-0141             
1 47287U 20100AF  25325.57329575  .00000384  00000+0  10316-2 0  9998
2 47287  87.8959  31.8913 0001492  98.8740 261.2557 13.12442199237447
