[{"OBJECT_NAME":"ONEWEB-0125","OBJECT_ID":"2020-100P","EPOCH":"2025-11-21T13:55:04.419264","MEAN_MOTION":13.12441514,"ECCENTRICITY":0.0001622,"INCLINATION":87.8966,"RA_OF_ASC_NODE":31.8914,"ARG_OF_PERICENTER":108.0919,"MEAN_ANOMALY":252.0386,"EPHEMERIS_TYPE":0,"CLASSIFICATION_TYPE":"U","NORAD_CAT_ID":47271,"ELEMENT_SET_NO":999,"REV_AT_EPOCH":23740,"BSTAR":0.00038854,"MEAN_MOTION_DOT":1.52e-6,"MEAN_MOTION_DDOT":0},{"OBJECT_NAME":"ONEWEB-0126","OBJECT_ID":"2020-100Q","EPOCH":"2025-11-21T05:16:43.748256","MEAN_MOTION":13.12441985,"ECCENTRICITY":0.0001693,"INCLINATION":87.897,"RA_OF_ASC_NODE":31.9872,"ARG_OF_PERICENTER":96.8845,"MEAN_ANOMALY":263.2476,"EPHEMERIS_TYPE":0,"CLASSIFICATION_TYPE":"U","NORAD_CAT_ID":47272,"ELEMENT_SET_NO":999,"REV_AT_EPOCH":23742,"BSTAR":-0.0011002,"MEAN_MOTION_DOT":-3.83e-6,"MEAN_MOTION_DDOT":0},{"OBJECT_NAME":"ONEWEB-0127","OBJECT_ID":"2020-100R","EPOCH":"2025-11-21T13:36:23.868288","MEAN_MOTION":13.12441895,"ECCENTRICITY":0.0001809,"INCLINATION":87.8963,"RA_OF_ASC_NODE":31.9286,"ARG_OF_PERICENTER":96.7123,"MEAN_ANOMALY":263.4211,"EPHEMERIS_TYPE":0,"CLASSIFICATION_TYPE":"U","NORAD_CAT_ID":47273,"ELEMENT_SET_NO":999,"REV_AT_EPOCH":23749,"BSTAR":0.001125,"MEAN_MOTION_DOT":4.17e-6,"MEAN_MOTION_DDOT":0},{"OBJECT_NAME":"ONEWEB-0128","OBJECT_ID":"2020-100S","EPOCH":"2025-11-21T14:09:05.403168","MEAN_MOTION":13.12441536,"ECCENTRICITY":0.0002054,"INCLINATION":87.8954,"RA_OF_ASC_NODE":31.9423,"ARG_OF_PERICENTER":98.3228,"MEAN_ANOMALY":261.8134,"EPHEMERIS_TYPE":0,"CLASSIFICATION_TYPE":"U","NORAD_CAT_ID":47274,"ELEMENT_SET_NO":999,"REV_AT_EPOCH":23751,"BSTAR":-0.00046603,"MEAN_MOTION_DOT":-1.55e-6,"MEAN_MOTION_DDOT":0},{"OBJECT_NAME":"ONEWEB-0129","OBJECT_ID":"2020-100T","EPOCH":"2025-11-21T13:38:43.552032","MEAN_MOTION":13.1244241,"ECCENTRICITY":0.0001934,"INCLINATION":87.8967,"RA_OF_ASC_NODE":31.8973,"ARG_OF_PERICENTER":66.2504,"MEAN_ANOMALY":293.8827,"EPHEMERIS_TYPE":0,"CLASSIFICATION_TYPE":"U","NORAD_CAT_ID":47275,"ELEMENT_SET_NO":999,"REV_AT_EPOCH":23744,"BSTAR":0.001386,"MEAN_MOTION_DOT":5.11e-6,"MEAN_MOTION_DDOT":0},{"OBJECT_NAME":"ONEWEB-0130","OBJECT_ID":"2020-100U","EPOCH":"2025-11-21T14:18:25.873920","MEAN_MOTION":13.12441596,"ECCENTRICITY":0.0001906,"INCLINATION":87.8964,"RA_OF_ASC_NODE":31.8873,"ARG_OF_PERICENTER":98.434,"MEAN_ANOMALY":261.7005,"EPHEMERIS_TYPE":0,"CLASSIFICATION_TYPE":"U","NORAD_CAT_ID":47276,"ELEMENT_SET_NO":999,"REV_AT_EPOCH":23741,"BSTAR":-0.00095863,"MEAN_MOTION_DOT":-3.32e-6,"MEAN_MOTION_DDOT":0},{"OBJECT_NAME":"ONEWEB-0131","OBJECT_ID":"2020-100V","EPOCH":"2025-11-21T14:13:45.778080","MEAN_MOTION":13.12441472,"ECCENTRICITY":0.0001842,"INCLINATION":87.8964,"RA_OF_ASC_NODE":31.9181,"ARG_OF_PERICENTER":101.3968,"MEAN_ANOMALY":258.7367,"EPHEMERIS_TYPE":0,"CLASSIFICATION_TYPE":"U","NORAD_CAT_ID":47277,"ELEMENT_SET_NO":999,"REV_AT_EPOCH":23745,"BSTAR":-0.00095212,"MEAN_MOTION_DOT":-3.3e-6,"MEAN_MOTION_DDOT":0},{"OBJECT_NAME":"ONEWEB-0132","OBJECT_ID":"2020-100W","EPOCH":"2025-11-21T13:06:01.935072","MEAN_MOTION":13.12441689,"ECCENTRICITY":0.0001854,"INCLINATION":87.8966,"RA_OF_ASC_NODE":31.9295,"ARG_OF_PERICENTER":100.4429,"MEAN_ANOMALY":259.6909,"EPHEMERIS_TYPE":0,"CLASSIFICATION_TYPE":"U","NORAD_CAT_ID":47278,"ELEMENT_SET_NO":999,"REV_AT_EPOCH":23734,"BSTAR":-0.00034258,"MEAN_MOTION_DOT":-1.11e-6,"MEAN_MOTION_DDOT":0},{"OBJECT_NAME":"ONEWEB-0133","OBJECT_ID":"2020-100X","EPOCH":"2025-11-21T06:10:04.236672","MEAN_MOTION":13.12442498,"ECCENTRICITY":0.0001956,"INCLINATION":87.8958,"RA_OF_ASC_NODE":31.9498,"ARG_OF_PERICENTER":101.579,"MEAN_ANOMALY":258.5558,"EPHEMERIS_TYPE":0,"CLASSIFICATION_TYPE":"U","NORAD_CAT_ID":47279,"ELEMENT_SET_NO":999,"REV_AT_EPOCH":23746,"BSTAR":0.0013058,"MEAN_MOTION_DOT":4.83e-6,"MEAN_MOTION_DDOT":0},{"OBJECT_NAME":"ONEWEB-0134","OBJECT_ID":"2020-100Y","EPOCH":"2025-11-21T05:25:52.708800","MEAN_MOTION":13.12443685,"ECCENTRICITY":0.0002039,"INCLINATION":87.8966,"RA_OF_ASC_NODE":31.9498,"ARG_OF_PERICENTER":95.8039,"MEAN_ANOMALY":264.3322,"EPHEMERIS_TYPE":0,"CLASSIFICATION_TYPE":"U","NORAD_CAT_ID":47280,"ELEMENT_SET_NO":999,"REV_AT_EPOCH":23743,"BSTAR":-0.00066551,"MEAN_MOTION_DOT":-2.27e-6,"MEAN_MOTION_DDOT":0},{"OBJECT_NAME":"ONEWEB-0135","OBJECT_ID":"2020-100Z","EPOCH":"2025-11-21T13:52:44.632704","MEAN_MOTION":13.12441821,"ECCENTRICITY":0.0002213,"INCLINATION":87.8968,"RA_OF_ASC_NODE":31.9201,"ARG_OF_PERICENTER":97.0091,"MEAN_ANOMALY":263.1289,"EPHEMERIS_TYPE":0,"CLASSIFICATION_TYPE":"U","NORAD_CAT_ID":47281,"ELEMENT_SET_NO":999,"REV_AT_EPOCH":23750,"BSTAR":0.00066453,"MEAN_MOTION_DOT":2.52e-6,"MEAN_MOTION_DDOT":0},{"OBJECT_NAME":"ONEWEB-0136","OBJECT_ID":"2020-100AA","EPOCH":"2025-11-21T05:11:51.478656","MEAN_MOTION":13.12441783,"ECCENTRICITY":0.0002136,"INCLINATION":87.8968,"RA_OF_ASC_NODE":31.9613,"ARG_OF_PERICENTER":92.2372,"MEAN_ANOMALY":267.9001,"EPHEMERIS_TYPE":0,"CLASSIFICATION_TYPE":"U","NORAD_CAT_ID":47282,"ELEMENT_SET_NO":999,"REV_AT_EPOCH":23738,"BSTAR":-0.0010324,"MEAN_MOTION_DOT":-3.59e-6,"MEAN_MOTION_DDOT":0},{"OBJECT_NAME":"ONEWEB-0137","OBJECT_ID":"2020-100AB","EPOCH":"2025-11-21T13:20:02.586336","MEAN_MOTION":13.12443364,"ECCENTRICITY":0.0001631,"INCLINATION":87.8965,"RA_OF_ASC_NODE":31.8992,"ARG_OF_PERICENTER":98.5687,"MEAN_ANOMALY":261.5626,"EPHEMERIS_TYPE":0,"CLASSIFICATION_TYPE":"U","NORAD_CAT_ID":47283,"ELEMENT_SET_NO":999,"REV_AT_EPOCH":23733,"BSTAR":0.00094499,"MEAN_MOTION_DOT":3.53e-6,"MEAN_MOTION_DDOT":0},{"OBJECT_NAME":"ONEWEB-0138","OBJECT_ID":"2020-100AC","EPOCH":"2025-11-21T05:30:32.810688","MEAN_MOTION":13.12442861,"ECCENTRICITY":0.000194,"INCLINATION":87.8967,"RA_OF_ASC_NODE":31.9733,"ARG_OF_PERICENTER":96.2562,"MEAN_ANOMALY":263.8787,"EPHEMERIS_TYPE":0,"CLASSIFICATION_TYPE":"U","NORAD_CAT_ID":47284,"ELEMENT_SET_NO":999,"REV_AT_EPOCH":23737,"BSTAR":-0.00059158,"MEAN_MOTION_DOT":-2.0e-6,"MEAN_MOTION_DDOT":0},{"OBJECT_NAME":"ONEWEB-0139","OBJECT_ID":"2020-100AD","EPOCH":"2025-11-21T13:45:56.767680","MEAN_MOTION":13.12443247,"ECCENTRICITY":0.0001795,"INCLINATION":87.8963,"RA_OF_ASC_NODE":31.8944,"ARG_OF_PERICENTER":100.447,"MEAN_ANOMALY":259.6861,"EPHEMERIS_TYPE":0,"CLASSIFICATION_TYPE":"U","NORAD_CAT_ID":47285,"ELEMENT_SET_NO":999,"REV_AT_EPOCH":23749,"BSTAR":0.00095901,"MEAN_MOTION_DOT":3.58e-6,"MEAN_MOTION_DDOT":0},{"OBJECT_NAME":"ONEWEB-0140","OBJECT_ID":"2020-100AE","EPOCH":"2025-11-21T05:21:12.053088","MEAN_MOTION":13.12442626,"ECCENTRICITY":0.00019,"INCLINATION":87.8967,"RA_OF_ASC_NODE":31.9506,"ARG_OF_PERICENTER":97.6638,"MEAN_ANOMALY":262.4706,"EPHEMERIS_TYPE":0,"CLASSIFICATION_TYPE":"U","NORAD_CAT_ID":47286,"ELEMENT_SET_NO":999,"REV_AT_EPOCH":23741,"BSTAR":-0.00099399,"MEAN_MOTION_DOT":-3.45e-6,"MEAN_MOTION_DDOT":0},{"OBJECT_NAME":"ONEWEB-0141","OBJECT_ID":"2020-100AF","EPOCH":"2025-11-21T13:45:32.752800","MEAN_MOTION":13.12442199,"ECCENTRICITY":0.0001492,"INCLINATION":87.8959,"RA_OF_ASC_NODE":31.8913,"ARG_OF_PERICENTER":98.874,"MEAN_ANOMALY":261.2557,"EPHEMERIS_TYPE":0,"CLASSIFICATION_TYPE":"U","NORAD_CAT_ID":47287,"ELEMENT_SET_NO":999,"REV_AT_EPOCH":23744,"BSTAR":0.0010316,"MEAN_MOTION_DOT":3.84e-6,"MEAN_MOTION_DDOT":0}]
